ONEWEB-0275             
1 48993U 21060AC  25342.78104891  .00000127  00000+0  29764-3 0  9996
2 48993  87.9043 266.6898 0001843  75.4807 284.6528 13.16594264214506
ONEWEB-0276             
1 48994U 21060AD  25342.81429392 -.00000012  00000+0 -66056-4 0  9998
2 48994  87.9047 266.6826 0001711  67.6810 292.4502 13.16595275214527
ONEWEB-0277             
1 48995U 21060AE  25342.82692223 -.00000020  00000+0 -87188-4 0  9993
2 48995  87.9033 266.7047 0001949  76.4743 283.6605 13.16593264214516
ONEWEB-0278             
1 48996U 21060AF  25342.81744648 -.00000225  00000+0 -62255-3 0  9996
2 48996  87.9045 266.6784 0001561  72.5843 287.5459 13.16596078214645
ONEWEB-0279             
1 48997U 21060AG  25342.82539119  .00000004  00000+0 -22639-4 0  9990
2 48997  87.9046 266.6747 0002058  74.9350 285.2009 13.16595156214571
ONEWEB-0280             
1 48998U 21060AH  25342.84041352  .00000041  00000+0  72968-4 0  9990
2 48998  87.9044 266.6775 0001730  62.1339 297.9967 13.16593107214514
ONEWEB-0281             
1 48999U 21060AJ  25342.84595490 -.00000007  00000+0 -52133-4 0  9994
2 48999  87.9043 266.6720 0001727  78.0744 282.0581 13.16595927214582
ONEWEB-0282             
1 49000U 21060AK  25342.80004691  .00000040  00000+0  72164-4 0  9993
2 49000  87.9043 266.6918 0001866  70.6392 289.4941 13.16595969214550
